[
  {
    "COMMENT": "GENERATED VIA SPACETRACK.ORG API",
    "ORIGINATOR": "18 SPCS",
    "NORAD_CAT_ID": "41335",
    "OBJECT_NAME": "SENTINEL 3A",
    "OBJECT_TYPE": "PAYLOAD",
    "CLASSIFICATION_TYPE": "U",
    "INTLDES": "16011A",
    "EPOCH": "2023-05-01 12:29:16",
    "EPOCH_MICROSECONDS": "690848",
    "MEAN_MOTION": "14.26735381",
    "ECCENTRICITY": "0.0001214",
    "INCLINATION": "98.6238",
    "RA_OF_ASC_NODE": "189.2529",
    "ARG_OF_PERICENTER": "105.3456",
    "MEAN_ANOMALY": "254.7859",
    "EPHEMERIS_TYPE": "0",
    "ELEMENT_SET_NO": "999",
    "REV_AT_EPOCH": "37512",
    "BSTAR": "0.000084694",
    "MEAN_MOTION_DOT": "0.00000161",
    "MEAN_MOTION_DDOT": "0",
    "FILE": "3898030",
    "TLE_LINE0": "0 SENTINEL 3A",
    "TLE_LINE1": "1 41335U 16011A   23121.52033207  .00000161  00000-0  84694-4 0  9999",
    "TLE_LINE2": "2 41335  98.6238 189.2529 0001214 105.3456 254.7859 14.26735381375120",
    "OBJECT_ID": "2016-011A",
    "OBJECT_NUMBER": "41335",
    "SEMIMAJOR_AXIS": "7180.801",
    "PERIOD": "100.930",
    "APOGEE": "803.538",
    "PERIGEE": "801.794",
    "DECAYED": "0"
  },
  {
    "COMMENT": "GENERATED VIA SPACETRACK.ORG API",
    "ORIGINATOR": "18 SPCS",
    "NORAD_CAT_ID": "55970",
    "OBJECT_NAME": "SES 18",
    "OBJECT_TYPE": "PAYLOAD",
    "CLASSIFICATION_TYPE": "U",
    "INTLDES": "23038A",
    "EPOCH": "2023-05-01 12:58:30",
    "EPOCH_MICROSECONDS": "998784",
    "MEAN_MOTION": "1.00526382",
    "ECCENTRICITY": "0.0001602",
    "INCLINATION": "0.0598",
    "RA_OF_ASC_NODE": "267.5384",
    "ARG_OF_PERICENTER": "38.4029",
    "MEAN_ANOMALY": "330.4866",
    "EPHEMERIS_TYPE": "0",
    "ELEMENT_SET_NO": "999",
    "REV_AT_EPOCH": "65",
    "BSTAR": "0",
    "MEAN_MOTION_DOT": "0.00000079",
    "MEAN_MOTION_DDOT": "0",
    "FILE": "3898176",
    "TLE_LINE0": "0 SES 18",
    "TLE_LINE1": "1 55970U 23038A   23121.54063656  .00000079  00000-0  00000+0 0  9991",
    "TLE_LINE2": "2 55970   0.0598 267.5384 0001602  38.4029 330.4866  1.00526382   658",
    "OBJECT_ID": "2023-038A",
    "OBJECT_NUMBER": "55970",
    "SEMIMAJOR_AXIS": "42093.510",
    "PERIOD": "1432.460",
    "APOGEE": "35722.118",
    "PERIGEE": "35708.631",
    "DECAYED": "0"
  },
  {
    "COMMENT": "GENERATED VIA SPACETRACK.ORG API",
    "ORIGINATOR": "18 SPCS",
    "NORAD_CAT_ID": "25544",
    "OBJECT_NAME": "ISS (ZARYA)",
    "OBJECT_TYPE": "PAYLOAD",
    "CLASSIFICATION_TYPE": "U",
    "INTLDES": "98067A",
    "EPOCH": "2023-05-01 13:10:24",
    "EPOCH_MICROSECONDS": "999744",
    "MEAN_MOTION": "15.49829017",
    "ECCENTRICITY": "0.0005749",
    "INCLINATION": "51.6395",
    "RA_OF_ASC_NODE": "199.6701",
    "ARG_OF_PERICENTER": "290.6333",
    "MEAN_ANOMALY": "277.6404",
    "EPHEMERIS_TYPE": "0",
    "ELEMENT_SET_NO": "999",
    "REV_AT_EPOCH": "39455",
    "BSTAR": "0.00025815",
    "MEAN_MOTION_DOT": "0.00014221",
    "MEAN_MOTION_DDOT": "0",
    "FILE": "3897996",
    "TLE_LINE0": "0 ISS (ZARYA)",
    "TLE_LINE1": "1 25544U 98067A   23121.54890046  .00014221  00000-0  25815-3 0  9999",
    "TLE_LINE2": "2 25544  51.6395 199.6701 0005749 290.6333 277.6404 15.49829017394557",
    "OBJECT_ID": "1998-067A",
    "OBJECT_NUMBER": "25544",
    "SEMIMAJOR_AXIS": "6795.363",
    "PERIOD": "92.913",
    "APOGEE": "421.134",
    "PERIGEE": "413.321",
    "DECAYED": "0"
  },
  {
    "COMMENT": "GENERATED VIA SPACETRACK.ORG API",
    "ORIGINATOR": "18 SPCS",
    "NORAD_CAT_ID": "25544",
    "OBJECT_NAME": "ISS (ZARYA)",
    "OBJECT_TYPE": "PAYLOAD",
    "CLASSIFICATION_TYPE": "U",
    "INTLDES": "98067A",
    "EPOCH": "2023-05-01 14:26:50",
    "EPOCH_MICROSECONDS": "360928",
    "MEAN_MOTION": "15.49830102",
    "ECCENTRICITY": "0.0005757",
    "INCLINATION": "51.6398",
    "RA_OF_ASC_NODE": "199.4077",
    "ARG_OF_PERICENTER": "291.3524",
    "MEAN_ANOMALY": "213.2214",
    "EPHEMERIS_TYPE": "0",
    "ELEMENT_SET_NO": "999",
    "REV_AT_EPOCH": "39456",
    "BSTAR": "0.00024634",
    "MEAN_MOTION_DOT": "0.00013549",
    "MEAN_MOTION_DDOT": "0",
    "FILE": "3898260",
    "TLE_LINE0": "0 ISS (ZARYA)",
    "TLE_LINE1": "1 25544U 98067A   23121.60197177  .00013549  00000-0  24634-3 0  9991",
    "TLE_LINE2": "2 25544  51.6398 199.4077 0005757 291.3524 213.2214 15.49830102394566",
    "OBJECT_ID": "1998-067A",
    "OBJECT_NUMBER": "25544",
    "SEMIMAJOR_AXIS": "6795.360",
    "PERIOD": "92.913",
    "APOGEE": "421.137",
    "PERIGEE": "413.313",
    "DECAYED": "0"
  },
  {
    "COMMENT": "GENERATED VIA SPACETRACK.ORG API",
    "ORIGINATOR": "18 SPCS",
    "NORAD_CAT_ID": "25544",
    "OBJECT_NAME": "ISS (ZARYA)",
    "OBJECT_TYPE": "PAYLOAD",
    "CLASSIFICATION_TYPE": "U",
    "INTLDES": "98067A",
    "EPOCH": "2023-05-01 15:53:41",
    "EPOCH_MICROSECONDS": "265888",
    "MEAN_MOTION": "15.49831567",
    "ECCENTRICITY": "0.000575",
    "INCLINATION": "51.6398",
    "RA_OF_ASC_NODE": "199.109",
    "ARG_OF_PERICENTER": "291.6645",
    "MEAN_ANOMALY": "189.6323",
    "EPHEMERIS_TYPE": "0",
    "ELEMENT_SET_NO": "999",
    "REV_AT_EPOCH": "39457",
    "BSTAR": "0.00024385",
    "MEAN_MOTION_DOT": "0.00013408",
    "MEAN_MOTION_DDOT": "0",
    "FILE": "3898267",
    "TLE_LINE0": "0 ISS (ZARYA)",
    "TLE_LINE1": "1 25544U 98067A   23121.66228317  .00013408  00000-0  24385-3 0  9995",
    "TLE_LINE2": "2 25544  51.6398 199.1090 0005750 291.6645 189.6323 15.49831567394572",
    "OBJECT_ID": "1998-067A",
    "OBJECT_NUMBER": "25544",
    "SEMIMAJOR_AXIS": "6795.355",
    "PERIOD": "92.913",
    "APOGEE": "421.128",
    "PERIGEE": "413.313",
    "DECAYED": "0"
  },
  {
    "COMMENT": "GENERATED VIA SPACETRACK.ORG API",
    "ORIGINATOR": "18 SPCS",
    "NORAD_CAT_ID": "55970",
    "OBJECT_NAME": "SES 18",
    "OBJECT_TYPE": "PAYLOAD",
    "CLASSIFICATION_TYPE": "U",
    "INTLDES": "23038A",
    "EPOCH": "2023-05-01 17:45:54",
    "EPOCH_MICROSECONDS": "493056",
    "MEAN_MOTION": "1.00526085",
    "ECCENTRICITY": "0.0001654",
    "INCLINATION": "0.0594",
    "RA_OF_ASC_NODE": "266.9716",
    "ARG_OF_PERICENTER": "35.2751",
    "MEAN_ANOMALY": "46.4082",
    "EPHEMERIS_TYPE": "0",
    "ELEMENT_SET_NO": "999",
    "REV_AT_EPOCH": "65",
    "BSTAR": "0",
    "MEAN_MOTION_DOT": "0.00000079",
    "MEAN_MOTION_DDOT": "0",
    "FILE": "3898264",
    "TLE_LINE0": "0 SES 18",
    "TLE_LINE1": "1 55970U 23038A   23121.74021404  .00000079  00000-0  00000+0 0  9998",
    "TLE_LINE2": "2 55970   0.0594 266.9716 0001654  35.2751  46.4082  1.00526085   654",
    "OBJECT_ID": "2023-038A",
    "OBJECT_NUMBER": "55970",
    "SEMIMAJOR_AXIS": "42093.593",
    "PERIOD": "1432.464",
    "APOGEE": "35722.420",
    "PERIGEE": "35708.495",
    "DECAYED": "0"
  },
  {
    "COMMENT": "GENERATED VIA SPACETRACK.ORG API",
    "ORIGINATOR": "18 SPCS",
    "NORAD_CAT_ID": "41335",
    "OBJECT_NAME": "SENTINEL 3A",
    "OBJECT_TYPE": "PAYLOAD",
    "CLASSIFICATION_TYPE": "U",
    "INTLDES": "16011A",
    "EPOCH": "2023-05-01 20:54:12",
    "EPOCH_MICROSECONDS": "825792",
    "MEAN_MOTION": "14.26735533",
    "ECCENTRICITY": "0.0001216",
    "INCLINATION": "98.6237",
    "RA_OF_ASC_NODE": "189.5984",
    "ARG_OF_PERICENTER": "105.3121",
    "MEAN_ANOMALY": "254.8194",
    "EPHEMERIS_TYPE": "0",
    "ELEMENT_SET_NO": "999",
    "REV_AT_EPOCH": "37517",
    "BSTAR": "0.000084023",
    "MEAN_MOTION_DOT": "0.0000016",
    "MEAN_MOTION_DDOT": "0",
    "FILE": "3898299",
    "TLE_LINE0": "0 SENTINEL 3A",
    "TLE_LINE1": "1 41335U 16011A   23121.87098178  .00000160  00000-0  84023-4 0  9990",
    "TLE_LINE2": "2 41335  98.6237 189.5984 0001216 105.3121 254.8194 14.26735533375175",
    "OBJECT_ID": "2016-011A",
    "OBJECT_NUMBER": "41335",
    "SEMIMAJOR_AXIS": "7180.800",
    "PERIOD": "100.930",
    "APOGEE": "803.539",
    "PERIGEE": "801.792",
    "DECAYED": "0"
  },
  {
    "COMMENT": "GENERATED VIA SPACETRACK.ORG API",
    "ORIGINATOR": "18 SPCS",
    "NORAD_CAT_ID": "25544",
    "OBJECT_NAME": "ISS (ZARYA)",
    "OBJECT_TYPE": "PAYLOAD",
    "CLASSIFICATION_TYPE": "U",
    "INTLDES": "98067A",
    "EPOCH": "2023-05-02 04:08:13",
    "EPOCH_MICROSECONDS": "141248",
    "MEAN_MOTION": "15.49847488",
    "ECCENTRICITY": "0.0005836",
    "INCLINATION": "51.6399",
    "RA_OF_ASC_NODE": "196.5813",
    "ARG_OF_PERICENTER": "294.9279",
    "MEAN_ANOMALY": "154.2645",
    "EPHEMERIS_TYPE": "0",
    "ELEMENT_SET_NO": "999",
    "REV_AT_EPOCH": "39465",
    "BSTAR": "0.00025531",
    "MEAN_MOTION_DOT": "0.00014069",
    "MEAN_MOTION_DDOT": "0",
    "FILE": "3898523",
    "TLE_LINE0": "0 ISS (ZARYA)",
    "TLE_LINE1": "1 25544U 98067A   23122.17237432  .00014069  00000-0  25531-3 0  9998",
    "TLE_LINE2": "2 25544  51.6399 196.5813 0005836 294.9279 154.2645 15.49847488394654",
    "OBJECT_ID": "1998-067A",
    "OBJECT_NUMBER": "25544",
    "SEMIMAJOR_AXIS": "6795.309",
    "PERIOD": "92.912",
    "APOGEE": "421.140",
    "PERIGEE": "413.208",
    "DECAYED": "0"
  },
  {
    "COMMENT": "GENERATED VIA SPACETRACK.ORG API",
    "ORIGINATOR": "18 SPCS",
    "NORAD_CAT_ID": "41335",
    "OBJECT_NAME": "SENTINEL 3A",
    "OBJECT_TYPE": "PAYLOAD",
    "CLASSIFICATION_TYPE": "U",
    "INTLDES": "16011A",
    "EPOCH": "2023-05-02 05:19:08",
    "EPOCH_MICROSECONDS": "956416",
    "MEAN_MOTION": "14.2673577",
    "ECCENTRICITY": "0.0001219",
    "INCLINATION": "98.6237",
    "RA_OF_ASC_NODE": "189.944",
    "ARG_OF_PERICENTER": "105.2247",
    "MEAN_ANOMALY": "254.9069",
    "EPHEMERIS_TYPE": "0",
    "ELEMENT_SET_NO": "999",
    "REV_AT_EPOCH": "37522",
    "BSTAR": "0.000089254",
    "MEAN_MOTION_DOT": "0.00000172",
    "MEAN_MOTION_DDOT": "0",
    "FILE": "3898563",
    "TLE_LINE0": "0 SENTINEL 3A",
    "TLE_LINE1": "1 41335U 16011A   23122.22163144  .00000172  00000-0  89254-4 0  9990",
    "TLE_LINE2": "2 41335  98.6237 189.9440 0001219 105.2247 254.9069 14.26735770375228",
    "OBJECT_ID": "2016-011A",
    "OBJECT_NUMBER": "41335",
    "SEMIMAJOR_AXIS": "7180.800",
    "PERIOD": "100.930",
    "APOGEE": "803.540",
    "PERIGEE": "801.789",
    "DECAYED": "0"
  }
]